GLOBALSTAR M057 [-]     
1 25943U 99058A   24014.18994070 -.00000143  00000+0 -45497-3 0  9994
2 25943  52.0005  23.8863 0002573  20.9951 339.1003 12.24778964103216
GLOBALSTAR M059 [-]     
1 25944U 99058B   24014.83828789 -.00000068  00000+0  23014-3 0  9996
2 25944  51.9993 172.1490 0001332  91.1019  77.3444 11.99960244511692
GLOBALSTAR M056 [-]     
1 25945U 99058C   24014.65148155 -.00000109  00000+0 -24895-3 0  9994
2 25945  51.9935 187.9607 0000962 139.1876 301.0950 12.04775242100002
GLOBALSTAR M031 [-]     
1 25946U 99058D   24014.70012869 -.00000024  00000+0  67511-3 0  9990
2 25946  51.9962 111.2339 0001925 177.9713 348.2250 12.16000067101348
GLOBALSTAR M039 [-]     
1 25961U 99062A   24015.12942142 -.00000055  00000+0  27045-3 0  9997
2 25961  51.9856  49.6001 0002499 272.2817  87.7764 12.62279016114698
GLOBALSTAR M034 [-]     
1 25962U 99062B   24014.95331267 -.00000048  00000+0  51771-3 0  9993
2 25962  51.9875 281.0676 0014230 137.5872 306.6231 11.79422506 77129
GLOBALSTAR M029 [-]     
1 25963U 99062C   24014.55697906 -.00000060  00000+0  32007-3 0  9990
2 25963  51.9815  61.3917 0003050 172.7695 335.0264 11.99872570106748
GLOBALSTAR M061 [-]     
1 25964U 99062D   24014.64458806 -.00000015  00000+0  10736-2 0  9999
2 25964  51.9799  99.0173 0006403  75.0990  74.1032 11.76756977 60010
